     2              NAVIGATION DATA                         RINEX VERSION / TYPE
CCRINEXN V1.6.0 UX  CDDIS               27-SEP-20 19:31     PGM / RUN BY / DATE 
IGS BROADCAST EPHEMERIS FILE                                COMMENT             
    0.8382D-08  0.1490D-07 -0.5960D-07 -0.5960D-07          ION ALPHA           
    0.8397D+05  0.1638D+05 -0.1311D+06 -0.6554D+05          ION BETA            
    0.000000000000D+00 0.266453525910D-14    61440     2125 DELTA-UTC: A0,A1,T,W
    18                                                      LEAP SECONDS        
                                                            END OF HEADER       
21 20  9 26 14  0  0.0 0.513452105224D-04 0.409272615798D-11 0.000000000000D+00
    0.660000000000D+02-0.771875000000D+01 0.509699802471D-08-0.380918499379D+00
   -0.424683094025D-06 0.237984979758D-01 0.305660068989D-05 0.515502323151D+04
    0.568800000000D+06-0.381842255592D-06 0.865397196341D+00-0.484287738800D-07
    0.954469405208D+00 0.321968750000D+03-0.128539037221D+01-0.894930134575D-08
    0.257510726355D-09 0.100000000000D+01 0.212400000000D+04 0.000000000000D+00
    0.200000000000D+01 0.000000000000D+00-0.102445483208D-07 0.660000000000D+02
    0.561618000000D+06 0.400000000000D+01 0.000000000000D+00 0.000000000000D+00
22 20  9 26 14  0  0.0-0.750253442675D-03 0.420641299570D-11 0.000000000000D+00
    0.430000000000D+02-0.109875000000D+03 0.510414117940D-08-0.222070119744D+01
   -0.560656189919D-05 0.673287280370D-02 0.713020563126D-05 0.515373053932D+04
    0.568800000000D+06 0.000000000000D+00 0.189180143317D+01 0.163912773132D-06
    0.931782397026D+00 0.224031250000D+03-0.109063852954D+01-0.828284501374D-08
   -0.168221292806D-09 0.100000000000D+01 0.212400000000D+04 0.000000000000D+00
    0.200000000000D+01 0.000000000000D+00-0.181607902050D-07 0.430000000000D+02
    0.561618000000D+06 0.400000000000D+01 0.000000000000D+00 0.000000000000D+00
23 20  9 26 14  0  0.0 0.644167885184D-04 0.272848410532D-11 0.000000000000D+00
    0.179000000000D+03-0.100218750000D+03 0.453268889089D-08 0.302984059167D+01
   -0.514835119247D-05 0.103526317980D-02 0.810623168945D-05 0.515364703369D+04
    0.568800000000D+06 0.689178705216D-07 0.195745976691D+01 0.465661287308D-07
    0.961471630410D+00 0.222750000000D+03 0.191323230235D+01-0.809390865442D-08
   -0.136791411531D-09 0.100000000000D+01 0.212400000000D+04 0.000000000000D+00
    0.320000000000D+02 0.100000000000D+01-0.838190317154D-08 0.947000000000D+03
    0.561600000000D+06 0.000000000000D+00 0.000000000000D+00 0.000000000000D+00
24 20  9 26 14  0  0.0-0.190404243767D-04-0.454747350886D-12 0.000000000000D+00
    0.200000000000D+02 0.220000000000D+02 0.519450216174D-08-0.309715912093D+01
    0.109709799290D-05 0.101493988186D-01 0.590458512306D-05 0.515363176918D+04
    0.568800000000D+06-0.335276126862D-07-0.227097811060D+01-0.121071934700D-06
    0.935951006962D+00 0.251875000000D+03 0.679236746788D+00-0.825498691626D-08
    0.160720985132D-10 0.100000000000D+01 0.212400000000D+04 0.000000000000D+00
    0.200000000000D+01 0.000000000000D+00 0.279396772385D-08 0.200000000000D+02
    0.568560000000D+06 0.000000000000D+00 0.000000000000D+00 0.000000000000D+00
25 20  9 26 14  0  0.0 0.547324307263D-04 0.557065504836D-11 0.000000000000D+00
    0.950000000000D+02 0.181250000000D+02 0.435553856852D-08 0.123874890264D+01
    0.841915607452D-06 0.913781509735D-02 0.846199691296D-05 0.515373275375D+04
    0.568800000000D+06-0.106170773506D-06-0.115895914012D+01 0.521540641785D-07
    0.963786768490D+00 0.217843750000D+03 0.931059614553D+00-0.804819238238D-08
   -0.387158983869D-09 0.100000000000D+01 0.212400000000D+04 0.000000000000D+00
    0.200000000000D+01 0.000000000000D+00 0.558793544769D-08 0.950000000000D+02
    0.567726000000D+06 0.400000000000D+01 0.000000000000D+00 0.000000000000D+00
26 20  9 26 14  0  0.0 0.285324640572D-03 0.636646291241D-11 0.000000000000D+00
    0.520000000000D+02 0.179375000000D+02 0.473484008224D-08 0.691020067691D+00
    0.951811671257D-06 0.500355463009D-02 0.836141407490D-05 0.515368619919D+04
    0.568800000000D+06 0.577419996262D-07-0.119653742550D+01 0.596046447754D-07
    0.944798210318D+00 0.208781250000D+03 0.195162606654D+00-0.816605443466D-08
   -0.404659712844D-09 0.100000000000D+01 0.212400000000D+04 0.000000000000D+00
    0.200000000000D+01 0.000000000000D+00 0.698491930962D-08 0.520000000000D+02
    0.561618000000D+06 0.400000000000D+01 0.000000000000D+00 0.000000000000D+00
28 20  9 26 14  0  0.0 0.674504786730D-03-0.420641299570D-11 0.000000000000D+00
    0.430000000000D+02 0.150000000000D+02 0.412945772277D-08-0.477082164136D+00
    0.746920704842D-06 0.184405975742D-01 0.942684710026D-05 0.515366593170D+04
    0.568800000000D+06-0.327825546265D-06-0.106597798343D+01 0.108033418655D-06
    0.975732095867D+00 0.211875000000D+03-0.139326653215D+01-0.806283584948D-08
   -0.180721813503D-09 0.100000000000D+01 0.212400000000D+04 0.000000000000D+00
    0.200000000000D+01 0.000000000000D+00-0.111758708954D-07 0.430000000000D+02
    0.561618000000D+06 0.400000000000D+01 0.000000000000D+00 0.000000000000D+00
29 20  9 26 14  0  0.0-0.202950555831D-03-0.807176547823D-11 0.000000000000D+00
    0.630000000000D+02 0.689687500000D+02 0.395052169794D-08-0.116361992105D+01
    0.345893204212D-05 0.159165624064D-02 0.716932117939D-05 0.515374695206D+04
    0.568800000000D+06 0.931322574616D-08-0.419112249022D-01 0.372529029846D-07
    0.985539450394D+00 0.260093750000D+03 0.223464250391D+01-0.781889711702D-08
    0.246081678861D-09 0.100000000000D+01 0.212400000000D+04 0.000000000000D+00
    0.200000000000D+01 0.000000000000D+00-0.102445483208D-07 0.630000000000D+02
    0.562969000000D+06 0.400000000000D+01 0.000000000000D+00 0.000000000000D+00
30 20  9 26 14  0  0.0-0.308958813548D-03-0.704858393874D-11 0.000000000000D+00
    0.650000000000D+02 0.182500000000D+02 0.530772108789D-08 0.215443029308D+01
    0.910833477974D-06 0.476688251365D-02 0.563450157642D-05 0.515358059311D+04
    0.568800000000D+06-0.856816768646D-07-0.217593873789D+01 0.167638063431D-07
    0.937841135156D+00 0.260968750000D+03-0.280742429373D+01-0.840285001243D-08
   -0.100718481043D-09 0.100000000000D+01 0.212400000000D+04 0.000000000000D+00
    0.200000000000D+01 0.000000000000D+00 0.372529029846D-08 0.650000000000D+02
    0.561618000000D+06 0.400000000000D+01 0.000000000000D+00 0.000000000000D+00
31 20  9 26 14  0  0.0-0.711497850716D-04-0.238742359215D-11 0.000000000000D+00
    0.600000000000D+01 0.229375000000D+02 0.481412909923D-08 0.184925378624D+01
    0.134296715260D-05 0.970931665506D-02 0.626035034657D-05 0.515365571403D+04
    0.568800000000D+06-0.745058059692D-07-0.218069872514D+01 0.106170773506D-06
    0.956957763029D+00 0.260718750000D+03 0.164531593424D+00-0.813676750045D-08
   -0.185364864048D-09 0.100000000000D+01 0.212400000000D+04 0.000000000000D+00
    0.200000000000D+01 0.000000000000D+00-0.130385160446D-07 0.600000000000D+01
    0.561618000000D+06 0.400000000000D+01 0.000000000000D+00 0.000000000000D+00
32 20  9 26 14  0  0.0 0.350925140083D-03 0.443378667114D-11 0.000000000000D+00
    0.480000000000D+02-0.128125000000D+01 0.461912097636D-08-0.560696665987D+00
   -0.188127160072D-06 0.417442107573D-02 0.984594225883D-05 0.515358637428D+04
    0.568800000000D+06 0.391155481338D-07 0.302213724250D+01 0.106170773506D-06
    0.957393036749D+00 0.190125000000D+03-0.244461090799D+01-0.802319134098D-08
    0.210365905442D-09 0.100000000000D+01 0.212400000000D+04 0.000000000000D+00
    0.200000000000D+01 0.000000000000D+00 0.465661287308D-09 0.480000000000D+02
    0.561650000000D+06 0.400000000000D+01 0.000000000000D+00 0.000000000000D+00
16 20  9 26 15 59 28.0-0.214332714677D-03-0.511590769747D-11 0.000000000000D+00
    0.200000000000D+01 0.220625000000D+02 0.397052253106D-08 0.682627679714D+00
    0.129640102386D-05 0.115718096495D-01 0.889785587788D-05 0.515357915497D+04
    0.575968000000D+06-0.100582838059D-06-0.106969342231D+01 0.158324837685D-06
    0.976683128670D+00 0.217218750000D+03 0.627128463538D+00-0.784568394708D-08
   -0.438946855327D-09 0.100000000000D+01 0.212400000000D+04 0.000000000000D+00
    0.200000000000D+01 0.000000000000D+00-0.107102096081D-07 0.200000000000D+01
    0.572706000000D+06 0.400000000000D+01 0.000000000000D+00 0.000000000000D+00
 1 20  9 26 15 59 44.0 0.353096984327D-04-0.113686837722D-11 0.000000000000D+00
    0.500000000000D+01-0.182187500000D+02 0.436089593453D-08-0.236361347296D+01
   -0.107474625111D-05 0.100809003925D-01 0.256858766079D-05 0.515369846725D+04
    0.575984000000D+06 0.119209289551D-06 0.942557922441D+00-0.800937414169D-07
    0.981485727803D+00 0.340250000000D+03 0.829600391158D+00-0.811426656320D-08
    0.209294432239D-09 0.100000000000D+01 0.212400000000D+04 0.000000000000D+00
    0.200000000000D+01 0.000000000000D+00 0.512227416039D-08 0.500000000000D+01
    0.574158000000D+06 0.400000000000D+01 0.000000000000D+00 0.000000000000D+00
12 20  9 26 15 59 44.0 0.620535574853D-04-0.511590769747D-11 0.000000000000D+00
    0.410000000000D+02 0.107500000000D+02 0.392980654936D-08 0.254131591096D+01
    0.553205609322D-06 0.790069263894D-02 0.905245542526D-05 0.515362597084D+04
    0.575984000000D+06 0.968575477600D-07-0.108853875202D+01-0.428408384323D-07
    0.976492605534D+00 0.210968750000D+03 0.116633055465D+01-0.761353141986D-08
   -0.303226916332D-09 0.100000000000D+01 0.212400000000D+04 0.000000000000D+00
    0.200000000000D+01 0.000000000000D+00-0.121071934700D-07 0.410000000000D+02
    0.569046000000D+06 0.400000000000D+01 0.000000000000D+00 0.000000000000D+00
